{"type": "FeatureCollection", "features": [ {"type": "Feature", "properties": {"norad_id": 66615, "name": "STARLINK-35988", "group": "last-30-days", "lat": -39.8279319534091, "lon": 55.95962112239428, "alt_km": 446.4495954760969, "timestamp": "2025-12-25T09:48:51.003507+00:00", "meta": {"OBJECT_NAME": "STARLINK-35988", "OBJECT_ID": "2025-270AD", "EPOCH": "2025-12-24T15:26:48.708384", "MEAN_MOTION": 15.40720042, "ECCENTRICITY": 8.454e-05, "INCLINATION": 42.9985, "RA_OF_ASC_NODE": 123.8838, "ARG_OF_PERICENTER": 268.0522, "MEAN_ANOMALY": 92.0238, "EPHEMERIS_TYPE": 0, "CLASSIFICATION_TYPE": "U", "NORAD_CAT_ID": 66615, "ELEMENT_SET_NO": 999, "REV_AT_EPOCH": 602, "BSTAR": 0.0012103707, "MEAN_MOTION_DOT": 0.00050626, "MEAN_MOTION_DDOT": 0}, "tle": {"line1": "1 66615U 25270AD  25358.64361931  .00050626  00000+0  12104-2 0  9994", "line2": "2 66615  42.9985 123.8838 0000845 268.0522  92.0238 15.40720042  6025"}}, "geometry": {"type": "Point", "coordinates": [55.95962112239428, -39.8279319534091]}}, {"type": "Feature", "properties": {"norad_id": 66616, "name": "STARLINK-35391", "group": "last-30-days", "lat": 19.71016148770742, "lon": 141.8421611597255, "alt_km": 440.701915357924, "timestamp": "2025-12-25T09:48:51.003517+00:00", "meta": {"OBJECT_NAME": "STARLINK-35391", "OBJECT_ID": "2025-270AE", "EPOCH": "2025-12-24T08:47:35.797920", "MEAN_MOTION": 15.40729798, "ECCENTRICITY": 9.163e-05, "INCLINATION": 42.9974, "RA_OF_ASC_NODE": 125.2405, "ARG_OF_PERICENTER": 275.8845, "MEAN_ANOMALY": 84.1907, "EPHEMERIS_TYPE": 0, "CLASSIFICATION_TYPE": "U", "NORAD_CAT_ID": 66616, "ELEMENT_SET_NO": 999, "REV_AT_EPOCH": 625, "BSTAR": 0.0012253863, "MEAN_MOTION_DOT": 0.00051279, "MEAN_MOTION_DDOT": 0}, "tle": {"line1": "1 66616U 25270AE  25358.36638655  .00051279  00000+0  12254-2 0  9995", "line2": "2 66616  42.9974 125.2405 0000916 275.8845  84.1907 15.40729798  6250"}}, "geometry": {"type": "Point", "coordinates": [141.8421611597255, 19.71016148770742]}}, {"type": "Feature", "properties": {"norad_id": 66617, "name": "STARLINK-35940", "group": "last-30-days", "lat": -34.25355059351668, "lon": -21.913821686456203, "alt_km": 451.67631967062243, "timestamp": "2025-12-25T09:48:51.003527+00:00", "meta": {"OBJECT_NAME": "STARLINK-35940", "OBJECT_ID": "2025-271A", "EPOCH": "2025-12-24T15:42:19.748736", "MEAN_MOTION": 15.39631392, "ECCENTRICITY": 9.52e-05, "INCLINATION": 53.16, "RA_OF_ASC_NODE": 130.9434, "ARG_OF_PERICENTER": 82.8453, "MEAN_ANOMALY": 277.266, "EPHEMERIS_TYPE": 0, "CLASSIFICATION_TYPE": "U", "NORAD_CAT_ID": 66617, "ELEMENT_SET_NO": 999, "REV_AT_EPOCH": 604, "BSTAR": 0.00059606, "MEAN_MOTION_DOT": 0.00023525, "MEAN_MOTION_DDOT": 0}, "tle": {"line1": "1 66617U 25271A   25358.65439524  .00023525  00000+0  59606-3 0  9999", "line2": "2 66617  53.1600 130.9434 0000952  82.8453 277.2660 15.39631392  6045"}}, "geometry": {"type": "Point", "coordinates": [-21.913821686456203, -34.25355059351668]}}, {"type": "Feature", "properties": {"norad_id": 66618, "name": "STARLINK-35970", "group": "last-30-days", "lat": -15.858607481805938, "lon": -40.98862985574912, "alt_km": 444.77666037162544, "timestamp": "2025-12-25T09:48:51.003539+00:00", "meta": {"OBJECT_NAME": "STARLINK-35970", "OBJECT_ID": "2025-271B", "EPOCH": "2025-12-25T04:00:01.998720", "MEAN_MOTION": 15.42387678, "ECCENTRICITY": 0.0001285, "INCLINATION": 53.1602, "RA_OF_ASC_NODE": 127.8603, "ARG_OF_PERICENTER": 95.0826, "MEAN_ANOMALY": 199.3817, "EPHEMERIS_TYPE": 0, "CLASSIFICATION_TYPE": "U", "NORAD_CAT_ID": 66618, "ELEMENT_SET_NO": 999, "REV_AT_EPOCH": 603, "BSTAR": -0.042997, "MEAN_MOTION_DOT": -0.01682614, "MEAN_MOTION_DDOT": 0}, "tle": {"line1": "1 66618U 25271B   25359.16668980 -.01682614  00000+0 -42997-1 0  9993", "line2": "2 66618  53.1602 127.8603 0001285  95.0826 199.3817 15.42387678  6037"}}, "geometry": {"type": "Point", "coordinates": [-40.98862985574912, -15.858607481805938]}}, {"type": "Feature", "properties": {"norad_id": 66619, "name": "STARLINK-35951", "group": "last-30-days", "lat": 52.684657602116005, "lon": -132.69059466275039, "alt_km": 439.34267014166744, "timestamp": "2025-12-25T09:48:51.003563+00:00", "meta": {"OBJECT_NAME": "STARLINK-35951", "OBJECT_ID": "2025-271C", "EPOCH": "2025-12-25T04:00:01.998720", "MEAN_MOTION": 15.39579886, "ECCENTRICITY": 0.0001228, "INCLINATION": 53.1593, "RA_OF_ASC_NODE": 128.0671, "ARG_OF_PERICENTER": 87.0433, "MEAN_ANOMALY": 105.8683, "EPHEMERIS_TYPE": 0, "CLASSIFICATION_TYPE": "U", "NORAD_CAT_ID": 66619, "ELEMENT_SET_NO": 999, "REV_AT_EPOCH": 608, "BSTAR": 0.0016354, "MEAN_MOTION_DOT": 0.00065492, "MEAN_MOTION_DDOT": 0}, "tle": {"line1": "1 66619U 25271C   25359.16668980  .00065492  00000+0  16354-2 0  9999", "line2": "2 66619  53.1593 128.0671 0001228  87.0433 105.8683 15.39579886  6085"}}, "geometry": {"type": "Point", "coordinates": [-132.69059466275039, 52.684657602116005]}}, {"type": "Feature", "properties": {"norad_id": 66620, "name": "STARLINK-35936", "group": "last-30-days", "lat": 34.24564294819473, "lon": 157.7194932319575, "alt_km": 442.4475326895654, "timestamp": "2025-12-25T09:48:51.003576+00:00", "meta": {"OBJECT_NAME": "STARLINK-35936", "OBJECT_ID": "2025-271D", "EPOCH": "2025-12-25T04:00:01.998720", "MEAN_MOTION": 15.39576135, "ECCENTRICITY": 8.96e-05, "INCLINATION": 53.1595, "RA_OF_ASC_NODE": 128.1714, "ARG_OF_PERICENTER": 80.2192, "MEAN_ANOMALY": 61.2036, "EPHEMERIS_TYPE": 0, "CLASSIFICATION_TYPE": "U", "NORAD_CAT_ID": 66620, "ELEMENT_SET_NO": 999, "REV_AT_EPOCH": 607, "BSTAR": 0.0015983, "MEAN_MOTION_DOT": 0.00063976, "MEAN_MOTION_DDOT": 0}, "tle": {"line1": "1 66620U 25271D   25359.16668980  .00063976  00000+0  15983-2 0  9993", "line2": "2 66620  53.1595 128.1714 0000896  80.2192  61.2036 15.39576135  6075"}}, "geometry": {"type": "Point", "coordinates": [157.7194932319575, 34.24564294819473]}}, {"type": "Feature", "properties": {"norad_id": 66621, "name": "STARLINK-35847", "group": "last-30-days", "lat": -23.85604091497057, "lon": -33.94445363798375, "alt_km": 433.6241894927034, "timestamp": "2025-12-25T09:48:51.003587+00:00", "meta": {"OBJECT_NAME": "STARLINK-35847", "OBJECT_ID": "2025-271E", "EPOCH": "2025-12-25T04:00:01.998720", "MEAN_MOTION": 15.45613962, "ECCENTRICITY": 0.0001105, "INCLINATION": 53.1603, "RA_OF_ASC_NODE": 127.8454, "ARG_OF_PERICENTER": 94.135, "MEAN_ANOMALY": 207.5675, "EPHEMERIS_TYPE": 0, "CLASSIFICATION_TYPE": "U", "NORAD_CAT_ID": 66621, "ELEMENT_SET_NO": 999, "REV_AT_EPOCH": 603, "BSTAR": -0.004451, "MEAN_MOTION_DOT": -0.00212291, "MEAN_MOTION_DDOT": 0}, "tle": {"line1": "1 66621U 25271E   25359.16668980 -.00212291  00000+0 -44510-2 0  9990", "line2": "2 66621  53.1603 127.8454 0001105  94.1350 207.5675 15.45613962  6034"}}, "geometry": {"type": "Point", "coordinates": [-33.94445363798375, -23.85604091497057]}}, {"type": "Feature", "properties": {"norad_id": 66622, "name": "STARLINK-35950", "group": "last-30-days", "lat": -25.494679121152142, "lon": 106.23460838264275, "alt_km": 451.0367976995076, "timestamp": "2025-12-25T09:48:51.003599+00:00", "meta": {"OBJECT_NAME": "STARLINK-35950", "OBJECT_ID": "2025-271F", "EPOCH": "2025-12-25T02:09:55.642176", "MEAN_MOTION": 15.39635182, "ECCENTRICITY": 0.0001233, "INCLINATION": 53.1595, "RA_OF_ASC_NODE": 128.6846, "ARG_OF_PERICENTER": 83.6271, "MEAN_ANOMALY": 276.4874, "EPHEMERIS_TYPE": 0, "CLASSIFICATION_TYPE": "U", "NORAD_CAT_ID": 66622, "ELEMENT_SET_NO": 999, "REV_AT_EPOCH": 611, "BSTAR": 0.00077232, "MEAN_MOTION_DOT": 0.00030632, "MEAN_MOTION_DDOT": 0}, "tle": {"line1": "1 66622U 25271F   25359.09022734  .00030632  00000+0  77232-3 0  9997", "line2": "2 66622  53.1595 128.6846 0001233  83.6271 276.4874 15.39635182  6112"}}, "geometry": {"type": "Point", "coordinates": [106.23460838264275, -25.494679121152142]}}, {"type": "Feature", "properties": {"norad_id": 66623, "name": "STARLINK-35920", "group": "last-30-days", "lat": -52.70863173237193, "lon": 47.41261998339818, "alt_km": 452.3545889770621, "timestamp": "2025-12-25T09:48:51.003610+00:00", "meta": {"OBJECT_NAME": "STARLINK-35920", "OBJECT_ID": "2025-271G", "EPOCH": "2025-12-24T20:09:23.217984", "MEAN_MOTION": 15.39644776, "ECCENTRICITY": 7.399e-05, "INCLINATION": 53.1613, "RA_OF_ASC_NODE": 129.9627, "ARG_OF_PERICENTER": 82.3587, "MEAN_ANOMALY": 277.7502, "EPHEMERIS_TYPE": 0, "CLASSIFICATION_TYPE": "U", "NORAD_CAT_ID": 66623, "ELEMENT_SET_NO": 999, "REV_AT_EPOCH": 607, "BSTAR": 0.00082949446, "MEAN_MOTION_DOT": 0.0003295, "MEAN_MOTION_DDOT": 0}, "tle": {"line1": "1 66623U 25271G   25358.83985206  .00032950  00000+0  82949-3 0  9997", "line2": "2 66623  53.1613 129.9627 0000739  82.3587 277.7502 15.39644776  6077"}}, "geometry": {"type": "Point", "coordinates": [47.41261998339818, -52.70863173237193]}}, {"type": "Feature", "properties": {"norad_id": 66624, "name": "STARLINK-35927", "group": "last-30-days", "lat": 42.714044489577866, "lon": -96.92713458471911, "alt_km": 441.3722750123261, "timestamp": "2025-12-25T09:48:51.003621+00:00", "meta": {"OBJECT_NAME": "STARLINK-35927", "OBJECT_ID": "2025-271H", "EPOCH": "2025-12-25T04:00:01.998720", "MEAN_MOTION": 15.39589706, "ECCENTRICITY": 2.68e-05, "INCLINATION": 53.1596, "RA_OF_ASC_NODE": 128.0166, "ARG_OF_PERICENTER": 108.2894, "MEAN_ANOMALY": 110.3247, "EPHEMERIS_TYPE": 0, "CLASSIFICATION_TYPE": "U", "NORAD_CAT_ID": 66624, "ELEMENT_SET_NO": 999, "REV_AT_EPOCH": 608, "BSTAR": 0.0020292, "MEAN_MOTION_DOT": 0.00081557, "MEAN_MOTION_DDOT": 0}, "tle": {"line1": "1 66624U 25271H   25359.16668980  .00081557  00000+0  20292-2 0  9991", "line2": "2 66624  53.1596 128.0166 0000268 108.2894 110.3247 15.39589706  6082"}}, "geometry": {"type": "Point", "coordinates": [-96.92713458471911, 42.714044489577866]}}]}